[{"OBJECT_NAME":"AETHER-6","OBJECT_ID":"2026-004Q","EPOCH":"2026-03-09T23:24:31.786560","MEAN_MOTION":14.88053153,"ECCENTRICITY":0.00065468,"INCLINATION":97.8038,"RA_OF_ASC_NODE":69.2098,"ARG_OF_PERICENTER":92.1481,"MEAN_ANOMALY":268.0486,"EPHEMERIS_TYPE":0,"CLASSIFICATION_TYPE":"U","NORAD_CAT_ID":67377,"ELEMENT_SET_NO":999,"REV_AT_EPOCH":853,"BSTAR":0.00028428707,"MEAN_MOTION_DOT":2.559e-5,"MEAN_MOTION_DDOT":0},{"OBJECT_NAME":"COSMOS 2251 DEB","OBJECT_ID":"1993-036YB","EPOCH":"2026-03-09T14:13:45.701184","MEAN_MOTION":14.85590963,"ECCENTRICITY":0.0021745,"INCLINATION":74.0605,"RA_OF_ASC_NODE":118.4079,"ARG_OF_PERICENTER":165.9213,"MEAN_ANOMALY":321.3345,"EPHEMERIS_TYPE":0,"CLASSIFICATION_TYPE":"U","NORAD_CAT_ID":34681,"ELEMENT_SET_NO":999,"REV_AT_EPOCH":90559,"BSTAR":0.0010634,"MEAN_MOTION_DOT":9.218e-5,"MEAN_MOTION_DDOT":0}]
